#aV2016  5  7  0  0  0.00000000     288 DD+AD WGS84 FIT  NGA
## 1895 518400.00000000   300.00000000 57515 0.0000000000000
+   31     1  2  3  5  6  7  8  9 10 11 12 13 14 15 16 17 18
+         19 20 21 22 23 24 25 26 27 28 29 30 31 32  0  0  0
+          0  0  0  0  0  0  0  0  0  0  0  0  0  0  0  0  0
+          0  0  0  0  0  0  0  0  0  0  0  0  0  0  0  0  0
+          0  0  0  0  0  0  0  0  0  0  0  0  0  0  0  0  0
++         2  2  2  2  2  2  2  2  2  2  2  2  2  2  2  2  2
++         2  2  2  2  2  2  2  2  2  2  2  2  2  2  0  0  0
++         0  0  0  0  0  0  0  0  0  0  0  0  0  0  0  0  0
++         0  0  0  0  0  0  0  0  0  0  0  0  0  0  0  0  0
++         0  0  0  0  0  0  0  0  0  0  0  0  0  0  0  0  0
%c cc cc ccc ccc cccc cccc cccc cccc ccccc ccccc ccccc ccccc
%c cc cc ccc ccc cccc cccc cccc cccc ccccc ccccc ccccc ccccc
%f  0.0000000  0.000000000  0.00000000000  0.000000000000000
%f  0.0000000  0.000000000  0.00000000000  0.000000000000000
%i    0    0    0    0      0      0      0      0         0
%i    0    0    0    0      0      0      0      0         0
/*      NGA, ST. LOUIS,MO.                                  
/*   EPHEMERIS COMPUTED FROM 2 DAYS OF DATA                 
/*   EPOCHA v2.4 SMOOTHER                                   
/*   G1762 IERS2010 SATAF SATAPC                            
*  2016  5  7 15 25  0.00000000
P  1 -20730.820072 -14181.650770  -9065.706796     19.635407                    
V  1  11431.219951   1705.634430 -28823.196771      0.011934                    
P  2   1124.088380  16523.531880  21265.607274    593.158951                    
V  2 -24974.709000  -7241.133730   6698.840928     -0.020806                    
P  3 -13334.808508 -18222.735783  13986.645971    -55.313210                    
V  3  -1052.635635 -17860.716886 -24290.344831     -0.038606                    
P  5   2549.234859  26087.438254   3505.345574   -122.779432                    
V  5  -4231.473730  -3822.147313  31134.293008      0.030873                    
P  6 -15231.503622   9179.234408  19743.013548    186.766754                    
V  6 -23226.574981  -9397.499942 -13556.266101      0.055524                    
P  7 -25503.580200  -5159.724950  -6171.612059    455.949486                    
V  7  -6607.148670  -4902.580266  30332.339076     -0.021610                    
P  8  -3761.522940 -15922.733209 -20863.709612    -34.224766                    
V  8  20651.022233 -16802.878203   9112.792839     -0.014106                    
P  9 -20747.869864   2683.031403  16356.786928    124.500755                    
V  9  14448.065180 -15101.446181  20765.652054      0.073687                    
P 10  12037.943094 -12376.231012 -20146.395969    -16.640843                    
V 10   5843.241248  24997.281829 -11916.628106     -0.091898                    
P 11 -17113.802375 -12666.727043 -16457.471216   -645.950714                    
V 11  20020.050845  -3404.677737 -18798.576973     -0.018004                    
P 12  10442.249109  21600.988096  11503.311763    378.898382                    
V 12    442.484480  14754.651871 -27580.853578      0.012733                    
P 13  -5508.630547  18702.238808 -18208.332202    -16.188815                    
V 13 -19622.020889  11671.110689  17965.949305     -0.026453                    
P 14  20821.835234 -16318.932108   1309.904687    -12.523444                    
V 14   2766.021650   1477.873323 -31884.733489     -0.020995                    
P 15   8300.054222  13859.444214 -21171.563329   -309.836988                    
V 15 -19746.681898  18063.357107   4454.849784     -0.016822                    
P 16   -204.758554 -26008.645479   4111.644920    -19.247280                    
V 16   2751.485236   5117.789434  32101.716121      0.026482                    
P 17 -21785.743604  14728.751429  -2590.727650   -203.607075                    
V 17   1397.249090  -4238.503420 -31999.104375     -0.001105                    
P 18  16132.865893   1267.526771 -20552.622897    512.958024                    
V 18   5228.305526  26958.417309   5361.955062      0.042440                    
P 19 -18206.824544  18344.207329   6686.420059   -525.707672                    
V 19  -8295.330738   3336.874515 -30281.791916      0.000144                    
P 20  13598.136461  20405.350813 -10300.489994    410.728471                    
V 20    110.034933  13392.991978  27115.651072      0.024001                    
P 21  25111.473137   1897.424855  -8066.947551   -521.833497                    
V 21   9665.281768   6609.532001  28712.117629     -0.013210                    
P 22  -9690.952230 -24028.194879   5770.612083    347.410728                    
V 22   2340.542838  -7774.000934 -29799.912221     -0.079541                    
P 23 -15134.115538  -6920.558944  20968.838476   -172.735161                    
V 23  19472.768139 -17481.781285   7918.148477     -0.016585                    
P 24  18468.313970  15078.718305 -11963.265209    -16.683593                    
V 24 -15079.459221  -2329.356580 -26150.503841     -0.005395                    
P 25  15029.068555  10530.565898  19151.515399   -167.004305                    
V 25   3386.742205  24252.169402 -15700.611051     -0.070504                    
P 26   5527.518841 -22042.553355  13704.572358   -356.260448                    
V 26   5481.666244  16696.330667  24680.750368     -0.126960                    
P 27   7015.307769 -20185.950226 -15691.979063     89.989865                    
V 27  16286.571831 -11606.217379  22417.954068      0.040161                    
P 28 -12408.531099  10329.921417 -20453.482638    521.361212                    
V 28  -3707.285197 -27114.518409 -11152.850881      0.026227                    
P 29  19059.949152   1115.371142  18452.119033    657.176329                    
V 29 -17825.143433  15191.501186  17548.386113      0.000472                    
P 30 -21879.782114   2147.192959 -14980.750391    123.249358                    
V 30 -16564.564822  -9536.278055  22744.383400      0.032184                    
P 31  12924.887929 -10323.705269  20961.035093    270.154808                    
V 31  24245.135495  10116.900653  -9662.176585     -0.018104                    
P 32  20589.046116 -16729.148161  -1146.279837     -2.712310                    
V 32    753.089540   3110.791478 -31706.727862     -0.051941                    
EOF
